[Satellite]
VERSION=1.1
NAME=FLOCK 3P-52
NICKNAME=FLOCK 3P-52
TLE1=1 42030U 17008CL  17186.28392200  .00001738  00000-0  77754-4 0  9997
TLE2=2 42030  97.4951 247.6179 0009473 139.8776 220.3162 15.22623005 21236
